KUIPER-00079            
1 64826U 25151L   25293.13375883  .00009980  00000+0  13342-2 0  9999
2 64826  51.8994 201.8114 0012762 130.9404 229.2665 14.79954885 15693
KUIPER-00080            
1 64827U 25151M   25293.12905941  .00008076  00000+0  10866-2 0  9996
2 64827  51.9001 202.1316 0005718 147.8923 212.2388 14.79949207 14491
KUIPER-00082            
1 64828U 25151N   25293.66671296 -.01005767  00000+0 -96259-1 0  9995
2 64828  51.8943 187.7359 0005512 161.7763  36.4081 14.95700979  2054
KUIPER-00083            
1 64829U 25151P   25293.10074532  .00009440  00000+0  12635-2 0  9991
2 64829  51.9011 197.2648 0011024 136.9708 223.2118 14.79971445 15744
KUIPER-00084            
1 64830U 25151Q   25293.15760055  .00010394  00000+0  13903-2 0  9999
2 64830  51.8992 207.0001 0012126 111.0947 249.1313 14.79892196 14422
KUIPER-00085            
1 64831U 25151R   25293.66671296  .00038791  00000+0  36391-2 0  9991
2 64831  51.8959 187.8582 0008756 134.6512 232.6102 14.93593557  4199
KUIPER-00086            
1 64832U 25151S   25292.99678051  .00000702  00000+0  12142-3 0  9993
2 64832  51.9001 200.2184 0011121 129.6026 230.5920 14.79918782 14507
KUIPER-00087            
1 64833U 25151T   25293.66671296 -.00521643  00000+0 -27369-1 0  9992
2 64833  51.8838 183.6874 0005319 165.4919 214.5623 15.17358068  1692
